satname,norad_id,inclination_deg,eccentricity,mean_motion_rev_per_day,perigee_km,apogee_km,l1,l2
STARLINK-1323,45553,53.0333,0.0004751,16.03050968,262.8185266921528,269.13176205173477,1 45553U 20025Y   25280.69944007  .00578392  16583-3  92593-3 0  9998,2 45553  53.0333 353.0476 0004751  38.1013 322.0352 16.03050968301865
STARLINK-1325,45554,53.0605,0.000758,15.49649448,412.59947526519136,422.90204110660125,1 45554U 20025Z   25280.49341370  .00088849  00000+0  15670-2 0  9997,2 45554  53.0605   8.7223 0007580  17.7805 342.3467 15.49649448302934
STARLINK-1327,45555,53.0529,0.0001345,15.06424973,546.203571260673,548.0664694341467,1 45555U 20025AA  25280.74030161  .00004953  00000+0  35095-3 0  9997,2 45555  53.0529  53.2310 0001345  82.1721 277.9421 15.06424973302310
STARLINK-1336,45557,53.04,0.0001796,15.97119618,281.2185889023849,283.6110591175693,1 45557U 20025AC  25280.72822661  .00416971  82495-4  94031-3 0  9996,2 45557  53.0400 359.0384 0001796  40.6278 319.4884 15.97119618303070
STARLINK-1356,45564,53.0548,0.0001417,15.06412207,546.1928289047319,548.155462083364,1 45564U 20025AK  25280.81034193 -.00001468  00000+0 -79633-4 0  9991,2 45564  53.0548  52.9181 0001417  98.0392 262.0758 15.06412207302329
STARLINK-1357,45565,53.0632,0.000559,15.28382628,476.81273075231184,484.48085103052836,1 45565U 20025AL  25280.68307740  .00106668  00000+0  37653-2 0  9998,2 45565  53.0632  42.4964 0005590 208.9795 151.0894 15.28382628302462
STARLINK-1361,45567,53.0568,0.0001379,15.06415806,546.2081163624398,548.1181141342249,1 45567U 20025AN  25280.36434521 -.00003089  00000+0 -18852-3 0  9999,2 45567  53.0568  54.9203 0001379  88.0010 272.1137 15.06415806302268
STARLINK-1363,45568,53.0538,0.0001443,15.06393203,546.2330590397041,548.2317206456137,1 45568U 20025AP  25280.71085808  .00002768  00000+0  20467-3 0  9995,2 45568  53.0538  53.6066 0001443  93.0346 267.0808 15.06393203302308
STARLINK-1366,45569,53.0546,9.4e-05,15.06447556,546.4148404178131,547.716778545996,1 45569U 20025AQ  25280.76607953 -.00018697  00000+0 -12380-2 0  9996,2 45569  53.0546  53.1165 0000940  84.2201 275.8896 15.06447556302312
STARLINK-1376,45570,53.0546,0.0001312,15.06406399,546.283342836613,548.1005491520418,1 45570U 20025AR  25280.75874312  .00003935  00000+0  28284-3 0  9990,2 45570  53.0546  53.1507 0001312  89.1343 270.9796 15.06406399302314
STARLINK-1320,45572,53.0601,0.0008189,15.38753469,444.20293657101865,455.385722502534,1 45572U 20025AT  25280.58627964  .00084128  00000+0  21480-2 0  9995,2 45572  53.0601   3.0223 0008189 270.7196  89.2869 15.38753469303029
STARLINK-1321,45573,53.0548,0.0001397,15.06397123,546.2529031175836,548.18784796831,1 45573U 20025AU  25280.67857095  .00002999  00000+0  22017-3 0  9990,2 45573  53.0548  43.5107 0001397  89.5698 270.5451 15.06397123302147
STARLINK-1328,45576,53.057,0.000648,15.60233868,382.5971710379763,391.36476392383156,1 45576U 20025AX  25280.68384125  .00158889  00000+0  18804-2 0  9991,2 45576  53.0570  29.5593 0006480 306.6406  53.4010 15.60233868302656
STARLINK-1331,45578,53.0582,0.000122,15.06393758,546.385793977287,548.0755836933613,1 45578U 20025AZ  25280.72280139  .00002148  00000+0  16310-3 0  9995,2 45578  53.0582  43.3123 0001220  71.5756 288.5366 15.06393758302466
STARLINK-1333,45580,53.0538,0.0001501,15.06405941,546.1538576032917,548.2328417742683,1 45580U 20025BB  25280.72925164  .00001173  00000+0  97594-4 0  9993,2 45580  53.0538  53.2838 0001501  92.1910 267.9251 15.06405941302312
STARLINK-1335,45581,53.0537,0.000131,15.06403031,546.2950489312407,548.1094878195554,1 45581U 20025BC  25280.73385260  .00001672  00000+0  13111-3 0  9998,2 45581  53.0537  43.2645 0001310 103.4952 256.6183 15.06403031302459
STARLINK-1337,45582,53.0543,0.0001321,15.06412789,546.2575284058476,548.0871951392282,1 45582U 20025BD  25280.49059485  .00009562  00000+0  65970-3 0  9995,2 45582  53.0543  44.3553 0001321  94.0637 266.0503 15.06412789302411
STARLINK-1347,45586,53.0556,0.0005159,15.27755153,478.9852596968294,486.06409041315055,1 45586U 20025BH  25280.73353222  .00094233  00000+0  33979-2 0  9994,2 45586  53.0556  32.6265 0005159 225.9866 134.0707 15.27755153302598
STARLINK-1360,45588,53.0468,0.0005853,15.70055162,354.7961162067122,362.6823034979652,1 45588U 20025BK  25280.81165679  .00104178  00000+0  84115-3 0  9991,2 45588  53.0468 318.2936 0005853  32.3799 327.7576 15.70055162303650
STARLINK-1364,45589,53.0559,0.000149,15.06406751,546.1589933206642,548.2227410250807,1 45589U 20025BL  25280.69331690  .00005679  00000+0  39979-3 0  9990,2 45589  53.0559  43.4469 0001490  93.9517 266.1643 15.06406751302444
STARLINK-1365,45590,53.0548,0.0001386,15.064032,546.2418984657161,548.1616023673314,1 45590U 20025BM  25280.84167041  .00001026  00000+0  87774-4 0  9995,2 45590  53.0548  72.7785 0001386  83.9975 276.1172 15.06403200302063
STARLINK-1443,45660,53.0554,0.0001122,15.06414808,546.3891549066784,547.9431929389075,1 45660U 20035D   25280.49519299  .00003627  00000+0  26212-3 0  9999,2 45660  53.0554  34.3358 0001122  96.4209 263.6908 15.06414808295644
STARLINK-1446,45663,53.0276,0.0003269,15.30794063,471.2020968997149,475.6816591701736,1 45663U 20035G   25280.51533197  .00021435  00000+0  72034-3 0  9998,2 45663  53.0276   1.5662 0003269 188.8504 171.2438 15.30794063296105
STARLINK-1448,45665,53.0531,0.0001404,15.06375119,546.3154860252525,548.2601453134939,1 45665U 20035J   25280.69792244  .00007352  00000+0  51230-3 0  9996,2 45665  53.0531  33.4211 0001404  96.3958 263.7191 15.06375119295663
STARLINK-1451,45668,53.0552,0.0001279,15.06406421,546.3061290044052,548.077628131543,1 45668U 20035M   25280.70165103  .00003982  00000+0  28599-3 0  9996,2 45668  53.0552  33.7251 0001279  95.4764 264.6370 15.06406421295672
STARLINK-1452,45669,53.0402,0.0007924,15.24199493,487.7454145478132,498.6350939803706,1 45669U 20035N   25280.64150852  .00016470  00000+0  67897-3 0  9995,2 45669  53.0402  18.1318 0007924 289.3163  70.6976 15.24199493295886
STARLINK-1453,45670,53.0552,0.0001761,15.06419501,545.9322474706305,548.3713341827597,1 45670U 20035P   25280.64540339  .00004474  00000+0  31891-3 0  9996,2 45670  53.0552   3.6646 0001761  96.0438 264.0752 15.06419501295974
STARLINK-1454,45671,53.0547,0.0001531,15.06405961,546.1330203249117,548.2535564592163,1 45671U 20035Q   25280.72372115  .00001781  00000+0  13840-3 0  9993,2 45671  53.0547  33.3105 0001531  95.4342 264.6822 15.06405961295666
STARLINK-1456,45673,53.0565,0.0001405,15.06402019,546.2323593979936,548.1783806039639,1 45673U 20035S   25280.73846587  .00010244  00000+0  70558-3 0  9998,2 45673  53.0565  33.2455 0001405  95.5813 264.5336 15.06402019295681
STARLINK-1457,45674,53.0553,0.0001515,15.06426407,546.0814474236031,548.179803514121,1 45674U 20035T   25280.48045458  .00007099  00000+0  49467-3 0  9998,2 45674  53.0553  34.4008 0001515  79.0371 281.0788 15.06426407295619
STARLINK-1458,45675,53.0549,0.0001362,15.06395382,546.2824770780171,548.168945880625,1 45675U 20035U   25280.66843097 -.00000975  00000+0 -46599-4 0  9996,2 45675  53.0549  33.5555 0001362  92.3002 267.8143 15.06395382295637
STARLINK-1460,45676,53.0543,0.0001573,15.06405237,546.1061525306395,548.284862137446,1 45676U 20035V   25280.63895757  .00005174  00000+0  36593-3 0  9990,2 45676  53.0543  33.6878 0001573  92.8384 267.2784 15.06405237295628
STARLINK-1392,45677,53.0543,0.0001622,15.06406514,546.0683052405357,548.3148818362788,1 45677U 20035W   25280.65000043  .00001257  00000+0  10325-3 0  9992,2 45677  53.0543  33.6397 0001622  95.9285 264.1889 15.06406514295669
STARLINK-1394,45679,53.0558,0.0001234,15.06449084,546.2065571835019,547.915696081156,1 45679U 20035Y   25280.64722659  .00025321  00000+0  17104-2 0  9996,2 45679  53.0558  23.6517 0001234 107.4936 252.6188 15.06449084295800
STARLINK-1402,45685,53.0528,0.0001729,15.06413751,545.9720279454959,548.3667989032574,1 45685U 20035AE  25280.67800245 -.00003124  00000+0 -19081-3 0  9990,2 45685  53.0528  17.9346 0001729  82.0037 278.1148 15.06413751295899
STARLINK-1404,45686,53.0558,0.0001228,15.06407818,546.3371671373934,548.0380268584158,1 45686U 20035AF  25280.67304278  .00000205  00000+0  32673-4 0  9994,2 45686  53.0558  23.5388 0001228  95.6675 264.4454 15.06407818295811
STARLINK-1413,45689,53.0549,0.0001523,15.06407173,546.1348465764222,548.2443010508059,1 45689U 20035AJ  25280.62513762  .00014077  00000+0  96187-3 0  9993,2 45689  53.0549  23.7492 0001523  78.7632 281.3528 15.06407173295718
STARLINK-1417,45693,53.0547,0.0001763,15.06445411,545.8514688456135,548.2932976741504,1 45693U 20035AN  25280.68775330 -.00003596  00000+0 -22234-3 0  9993,2 45693  53.0547  23.4728 0001763  91.6424 268.4767 15.06445411295807
STARLINK-1420,45695,53.0578,0.0001987,15.06402361,545.8282565021282,548.5803871434218,1 45695U 20035AQ  25280.48965673  .00006813  00000+0  47581-3 0  9999,2 45695  53.0578   4.3513 0001987  86.2005 273.9211 15.06402361296067
STARLINK-1422,45696,53.0546,0.000146,15.06417262,546.1475597343406,548.1697460649875,1 45696U 20035AR  25280.63249466  .00012497  00000+0  85595-3 0  9994,2 45696  53.0546  23.7211 0001460  92.3776 267.7380 15.06417262295795
STARLINK-1351,45697,53.0557,0.0001528,15.06424561,546.0781012758234,548.1944647911187,1 45697U 20035AS  25280.67488468  .00014133  00000+0  96516-3 0  9990,2 45697  53.0557   3.5300 0001528 103.3639 256.7520 15.06424561296097
STARLINK-1398,45699,53.0517,0.0001619,15.44994789,430.29092070870774,432.4958466469425,1 45699U 20035AU  25280.43096922  .00032595  00000+0  68653-3 0  9999,2 45699  53.0517 331.3642 0001619 241.4716 118.6127 15.44994789296520
STARLINK-1400,45700,53.0562,0.0001519,15.06411725,546.1236677476763,548.227577722464,1 45700U 20035AV  25280.58274595  .00012880  00000+0  88174-3 0  9997,2 45700  53.0562   3.9460 0001519  97.1442 262.9720 15.06411725296078
